NORAD_CAT_ID,OBJECT_NAME,OBJECT_TYPE,EPOCH,MEAN_MOTION,ECCENTRICITY,INCLINATION,RA_OF_ASC_NODE,ARG_OF_PERICENTER,MEAN_ANOMALY,BSTAR,MEAN_MOTION_DOT,MEAN_MOTION_DDOT,TLE_LINE0,TLE_LINE1,TLE_LINE2,SEMIMAJOR_AXIS,PERIOD,APOGEE,PERIGEE,DECAYED
52875.0,STARLINK-4193,PAYLOAD,2022-12-02 16:50:53,15.08838058,0.0002745,53.218,329.6484,32.4803,327.6357,2.7021e-05,1.42e-06,0.0,0 STARLINK-4193,1 52875U 22062AX  22336.70200285  .00000142  00000-0  27021-4 0  9992,2 52875  53.2180 329.6484 0002745  32.4803 327.6357 15.08838058 25963,6917.886,95.438,541.65,537.852,0.0
52875.0,STARLINK-4193,PAYLOAD,2022-12-03 00:47:48,15.08841552,0.0002734,53.2188,328.1623,31.9264,328.1893,-1.0325e-05,-4.53e-06,0.0,0 STARLINK-4193,1 52875U 22062AX  22337.03320212 -.00000453  00000-0 -10325-4 0  9998,2 52875  53.2188 328.1623 0002734  31.9264 328.1893 15.08841552 26508,6917.876,95.437,541.632,537.849,0.0
52875.0,STARLINK-4193,PAYLOAD,2022-12-03 08:44:44,15.0885245,0.0002705,53.218,326.6748,34.2037,325.9129,-0.00017655,-3.098e-05,0.0,0 STARLINK-4193,1 52875U 22062AX  22337.36439986 -.00003098  00000-0 -17655-3 0  9993,2 52875  53.2180 326.6748 0002705  34.2037 325.9129 15.08852450 26060,6917.842,95.437,541.5790000000002,537.836,0.0
52875.0,STARLINK-4193,PAYLOAD,2022-12-03 16:41:40,15.08828608,0.0002751,53.2181,325.1878,32.3905,327.7256,-2.9679e-05,-7.61e-06,0.0,0 STARLINK-4193,1 52875U 22062AX  22337.69561176 -.00000761  00000-0 -29679-4 0  9990,2 52875  53.2181 325.1878 0002751  32.3905 327.7256 15.08828608 26602,6917.915,95.438,541.683,537.877,0.0
52875.0,STARLINK-4193,PAYLOAD,2022-12-04 02:13:59,15.08837776,0.0002797,53.2176,323.4044,33.8203,326.2967,-4.9466e-05,-1.076e-05,0.0,0 STARLINK-4193,1 52875U 22062AX  22338.09304792 -.00001076  00000-0 -49466-4 0  9990,2 52875  53.2176 323.4044 0002797  33.8203 326.2967 15.08837776 26664,6917.887,95.438,541.687,537.817,0.0
52875.0,STARLINK-4193,PAYLOAD,2022-12-04 08:35:31,15.08842774,0.0002689,53.218,322.2145,34.6319,325.4848,-3.2463000000000004e-05,-8.05e-06,0.0,0 STARLINK-4193,1 52875U 22062AX  22338.35800407 -.00000805  00000-0 -32463-4 0  9991,2 52875  53.2180 322.2145 0002689  34.6319 325.4848 15.08842774 26219,6917.871999999999,95.437,541.597,537.877,0.0
52875.0,STARLINK-4193,PAYLOAD,2022-12-04 16:32:26,15.08845373,0.0002704,53.2186,320.7283,33.0539,327.0622,6.3304e-05,7.19e-06,0.0,0 STARLINK-4193,1 52875U 22062AX  22338.68919834  .00000719  00000-0  63304-4 0  9992,2 52875  53.2186 320.7283 0002704  33.0539 327.0622 15.08845373 26751,6917.864000000001,95.437,541.6,537.8580000000002,0.0
52875.0,STARLINK-4193,PAYLOAD,2022-12-05 08:26:18,15.0884324,0.0002745,53.2187,317.7552,34.34,325.777,6.816399999999999e-05,7.97e-06,0.0,0 STARLINK-4193,1 52875U 22062AX  22339.35159895  .00000797  00000-0  68164-4 0  9995,2 52875  53.2187 317.7552 0002745  34.3400 325.7770 15.08843240 26360,6917.87,95.437,541.634,537.837,0.0
52875.0,STARLINK-4193,PAYLOAD,2022-12-05 16:23:13,15.08840702,0.0002767,53.2186,316.2682,35.0328,325.0846,0.00011548,1.55e-05,0.0,0 STARLINK-4193,1 52875U 22062AX  22339.68279832  .00001550  00000-0  11548-3 0  9996,2 52875  53.2186 316.2682 0002767  35.0328 325.0846 15.08840702 26411,6917.878000000002,95.438,541.6569999999998,537.8290000000002,0.0
52875.0,STARLINK-4193,PAYLOAD,2022-12-06 01:55:32,15.08845826,0.0002763,53.2185,314.4840000000001,35.9595,324.1583,9.9732e-05,1.299e-05,0.0,0 STARLINK-4193,1 52875U 22062AX  22340.08023487  .00001299  00000-0  99732-4 0  9997,2 52875  53.2185 314.4840 0002763  35.9595 324.1583 15.08845826 26967,6917.863,95.437,541.639,537.816,0.0
52875.0,STARLINK-4193,PAYLOAD,2022-12-06 08:17:05,15.08842746,0.000279,53.2188,313.295,35.4342,324.6835,4.4588e-05,4.21e-06,0.0,0 STARLINK-4193,1 52875U 22062AX  22340.34519788  .00000421  00000-0  44588-4 0  9995,2 52875  53.2188 313.2950 0002790  35.4342 324.6835 15.08842746 26518,6917.871999999999,95.437,541.6669999999998,537.807,0.0
52875.0,STARLINK-4193,PAYLOAD,2022-12-06 22:35:34,15.08830642,0.0002847,53.2179,310.6191,34.8331,325.2847,-7.11e-05,-1.42e-05,0.0,0 STARLINK-4193,1 52875U 22062AX  22340.94136965 -.00001420  00000-0 -71100-4 0  9995,2 52875  53.2179 310.6191 0002847  34.8331 325.2847 15.08830642 27096,6917.909000000002,95.438,541.744,537.804,0.0
52875.0,STARLINK-4193,PAYLOAD,2022-12-07 14:29:26,15.08829768,0.0002692,53.2181,307.6456,34.1677,325.9488,-0.00012166,-2.224e-05,0.0,0 STARLINK-4193,1 52875U 22062AX  22341.60377491 -.00002224  00000-0 -12166-3 0  9999,2 52875  53.2181 307.6456 0002692  34.1677 325.9488 15.08829768 26705,6917.9119999999975,95.438,541.639,537.914,0.0
52875.0,STARLINK-4193,PAYLOAD,2022-12-08 04:47:52,15.08846563,0.0002715,53.2193,304.9706,35.2868,324.8304,6.9318e-05,8.15e-06,0.0,0 STARLINK-4193,1 52875U 22062AX  22342.19991880  .00000815  00000-0  69318-4 0  9992,2 52875  53.2193 304.9706 0002715  35.2868 324.8304 15.08846563 27287,6917.86,95.437,541.604,537.847,0.0
52875.0,STARLINK-4193,PAYLOAD,2022-12-08 14:20:08,15.08877009,0.0001638,53.2191,303.1884,337.542,22.55,0.00028824,4.307e-05,0.0,0 STARLINK-4193,1 52875U 22062AX  22342.59732345  .00004307  00000-0  28824-3 0  9991,2 52875  53.2191 303.1884 0001638 337.5420  22.5500 15.08877009 27344,6917.767,95.435,540.765,538.499,0.0
52875.0,STARLINK-4193,PAYLOAD,2022-12-09 12:35:41,15.08768919,0.0001641,53.2193,299.028,13.7167,346.3869,-0.00072331,-0.00011759,0.0,0 STARLINK-4193,1 52875U 22062AX  22343.52478630 -.00011759  00000-0 -72331-3 0  9992,2 52875  53.2193 299.0280 0001641  13.7167 346.3869 15.08768919 27483,6918.098000000001,95.442,541.0980000000002,538.827,0.0
52875.0,STARLINK-4193,PAYLOAD,2022-12-09 20:32:27,15.08976413,0.0002656,53.2194,297.5397,340.055,20.0338,-0.0011658,-0.00018865,0.0,0 STARLINK-4193,1 52875U 22062AX  22343.85587270 -.00018865  00000-0 -11658-2 0  9998,2 52875  53.2194 297.5397 0002656 340.0550  20.0338 15.08976413 27538,6917.4630000000025,95.429,541.1659999999998,537.491,0.0
52875.0,STARLINK-4193,PAYLOAD,2022-12-10 06:04:50,15.08854043,0.0002535,53.2187,295.7549,22.2085,337.9017,-0.000327,-5.491e-05,0.0,0 STARLINK-4193,1 52875U 22062AX  22344.25336565 -.00005491  00000-0 -32700-3 0  9995,2 52875  53.2187 295.7549 0002535  22.2085 337.9017 15.08854043 27591,6917.837,95.437,541.456,537.9490000000002,0.0
52875.0,STARLINK-4193,PAYLOAD,2022-12-11 05:55:38,15.08832156,0.0002535,53.2186,291.2941,38.4348,321.6824,4.1873e-05,3.78e-06,0.0,0 STARLINK-4193,1 52875U 22062AX  22345.24697090  .00000378  00000-0  41873-4 0  9997,2 52875  53.2186 291.2941 0002535  38.4348 321.6824 15.08832156 27742,6917.904,95.438,541.523,538.016,0.0
52875.0,STARLINK-4193,PAYLOAD,2022-12-12 02:35:38,15.08836399,0.000281,53.2182,287.4259,29.1036,331.0113,6.5040999999999984e-06,-1.85e-06,0.0,0 STARLINK-4193,1 52875U 22062AX  22346.10808936 -.00000185  00000-0  65041-5 0  9997,2 52875  53.2182 287.4259 0002810  29.1036 331.0113 15.08836399 27383,6917.891,95.438,541.7,537.812,0.0
52875.0,STARLINK-4193,PAYLOAD,2022-12-13 02:26:26,15.0882941,0.0002577,53.2177,282.9648,30.6062,329.5080000000001,0.00011083,1.475e-05,0.0,0 STARLINK-4193,1 52875U 22062AX  22347.10169057  .00001475  00000-0  11083-3 0  9999,2 52875  53.2177 282.9648 0002577  30.6062 329.5080 15.08829410 28028,6917.913000000001,95.438,541.561,537.995,0.0
52875.0,STARLINK-4193,PAYLOAD,2022-12-13 05:37:12,15.08833398,0.000271,53.2187,282.3695,27.1088,333.0045,1.8138e-05,0.0,0.0,0 STARLINK-4193,1 52875U 22062AX  22347.23417256  .00000000  00000-0  18138-4 0  9992,2 52875  53.2187 282.3695 0002710  27.1088 333.0045 15.08833398 27551,6917.901,95.438,541.64,537.891,0.0
52875.0,STARLINK-4193,PAYLOAD,2022-12-14 02:17:13,15.0883613,0.0002574,53.2186,278.5038,29.7115,330.4023,-1.1665e-05,-4.74e-06,0.0,0 STARLINK-4193,1 52875U 22062AX  22348.09529494 -.00000474  00000-0 -11665-4 0  9990,2 52875  53.2186 278.5038 0002574  29.7115 330.4023 15.08836130 27683,6917.892,95.438,541.538,537.977,0.0
52875.0,STARLINK-4193,PAYLOAD,2022-12-15 05:18:47,15.08832543,0.0002662,53.2182,273.4486,30.1875,329.927,2.0879e-05,4.4e-07,0.0,0 STARLINK-4193,1 52875U 22062AX  22349.22137987  .00000044  00000-0  20879-4 0  9996,2 52875  53.2182 273.4486 0002662  30.1875 329.9270 15.08832543 28342,6917.903,95.438,541.61,537.927,0.0
52875.0,STARLINK-4193,PAYLOAD,2022-12-15 11:40:19,15.08840928,0.0002671,53.2182,272.2592,29.9319,330.1825,0.00011862,1.6e-05,0.0,0 STARLINK-4193,1 52875U 22062AX  22349.48633183  .00001600  00000-0  11862-3 0  9993,2 52875  53.2182 272.2592 0002671  29.9319 330.1825 15.08840928 28386,6917.878000000002,95.437,541.59,537.895,0.0
52875.0,STARLINK-4193,PAYLOAD,2022-12-15 19:37:14,15.08844722,0.000259,53.2178,270.7722,28.9017,331.2118,7.1392e-05,8.48e-06,0.0,0 STARLINK-4193,1 52875U 22062AX  22349.81753061  .00000848  00000-0  71392-4 0  9996,2 52875  53.2178 270.7722 0002590  28.9017 331.2118 15.08844722 27947,6917.866,95.437,541.523,537.939,0.0
52875.0,STARLINK-4193,PAYLOAD,2022-12-16 11:31:07,15.08822129,0.0002825,53.2178,267.798,26.7667,333.3471,-0.00010629,-1.979e-05,0.0,0 STARLINK-4193,1 52875U 22062AX  22350.47995273 -.00001979  00000-0 -10629-3 0  9996,2 52875  53.2178 267.7980 0002825  26.7667 333.3471 15.08822129 28535,6917.935,95.439,541.754,537.846,0.0
52875.0,STARLINK-4193,PAYLOAD,2022-12-16 19:28:03,15.08820886,0.0002757,53.2177,266.3114,28.162,331.9521,-8.009e-05,-1.562e-05,0.0,0 STARLINK-4193,1 52875U 22062AX  22350.81115612 -.00001562  00000-0 -80090-4 0  9993,2 52875  53.2177 266.3114 0002757  28.1620 331.9521 15.08820886 28096,6917.939,95.439,541.711,537.8969999999998,0.0
52875.0,STARLINK-4193,PAYLOAD,2022-12-17 03:24:59,15.08829397,0.0002654,53.2178,264.8246,28.5869,331.5268,-5.2963e-06,-3.73e-06,0.0,0 STARLINK-4193,1 52875U 22062AX  22351.14235048 -.00000373  00000-0 -52963-5 0  9994,2 52875  53.2178 264.8246 0002654  28.5869 331.5268 15.08829397 28631,6917.913000000001,95.438,541.614,537.942,0.0
